{"type": "FeatureCollection", "features": [ {"type": "Feature", "properties": {"norad_id": 36695, "name": "FENGYUN 1C DEB", "group": "fengyun-1c-debris", "lat": -72.11163830271254, "lon": -12.500838175325997, "alt_km": 876.1479078137354, "timestamp": "2025-12-05T07:38:19.134033+00:00", "meta": {"OBJECT_NAME": "FENGYUN 1C DEB", "OBJECT_ID": "1999-025DZR", "EPOCH": "2025-12-02T05:08:42.495936", "MEAN_MOTION": 14.43719766, "ECCENTRICITY": 0.0256767, "INCLINATION": 98.2188, "RA_OF_ASC_NODE": 317.8964, "ARG_OF_PERICENTER": 162.2314, "MEAN_ANOMALY": 198.8066, "EPHEMERIS_TYPE": 0, "CLASSIFICATION_TYPE": "U", "NORAD_CAT_ID": 36695, "ELEMENT_SET_NO": 999, "REV_AT_EPOCH": 89416, "BSTAR": 0.00021067, "MEAN_MOTION_DOT": 1.017e-05, "MEAN_MOTION_DDOT": 0}, "tle": {"line1": "1 36695U 99025DZR 25336.21438074  .00001017  00000+0  21067-3 0  9999", "line2": "2 36695  98.2188 317.8964 0256767 162.2314 198.8066 14.43719766894161"}}, "geometry": {"type": "Point", "coordinates": [-12.500838175325997, -72.11163830271254]}}, {"type": "Feature", "properties": {"norad_id": 36696, "name": "FENGYUN 1C DEB", "group": "fengyun-1c-debris", "lat": -64.43746314446608, "lon": 7.288623124257903, "alt_km": 759.9572356184171, "timestamp": "2025-12-05T07:38:19.134043+00:00", "meta": {"OBJECT_NAME": "FENGYUN 1C DEB", "OBJECT_ID": "1999-025DZS", "EPOCH": "2025-12-02T18:11:58.683840", "MEAN_MOTION": 14.38992658, "ECCENTRICITY": 0.00232796, "INCLINATION": 98.9924, "RA_OF_ASC_NODE": 345.2734, "ARG_OF_PERICENTER": 359.309, "MEAN_ANOMALY": 0.806, "EPHEMERIS_TYPE": 0, "CLASSIFICATION_TYPE": "U", "NORAD_CAT_ID": 36696, "ELEMENT_SET_NO": 999, "REV_AT_EPOCH": 64252, "BSTAR": 0.0025774102, "MEAN_MOTION_DOT": 7.939e-05, "MEAN_MOTION_DDOT": 0}, "tle": {"line1": "1 36696U 99025DZS 25336.75831810  .00007939  00000+0  25774-2 0  9991", "line2": "2 36696  98.9924 345.2734 0023279 359.3090   0.8060 14.38992658642521"}}, "geometry": {"type": "Point", "coordinates": [7.288623124257903, -64.43746314446608]}}, {"type": "Feature", "properties": {"norad_id": 36699, "name": "FENGYUN 1C DEB", "group": "fengyun-1c-debris", "lat": 4.9382680216552926, "lon": -26.732747217286267, "alt_km": 869.4289820123331, "timestamp": "2025-12-05T07:38:19.134053+00:00", "meta": {"OBJECT_NAME": "FENGYUN 1C DEB", "OBJECT_ID": "1999-025DZV", "EPOCH": "2025-12-02T05:25:44.765184", "MEAN_MOTION": 14.24274466, "ECCENTRICITY": 0.0094163, "INCLINATION": 98.5587, "RA_OF_ASC_NODE": 331.0009, "ARG_OF_PERICENTER": 160.5985, "MEAN_ANOMALY": 199.8818, "EPHEMERIS_TYPE": 0, "CLASSIFICATION_TYPE": "U", "NORAD_CAT_ID": 36699, "ELEMENT_SET_NO": 999, "REV_AT_EPOCH": 73177, "BSTAR": 0.00029938, "MEAN_MOTION_DOT": 6.81e-06, "MEAN_MOTION_DDOT": 0}, "tle": {"line1": "1 36699U 99025DZV 25336.22621256  .00000681  00000+0  29938-3 0  9991", "line2": "2 36699  98.5587 331.0009 0094163 160.5985 199.8818 14.24274466731779"}}, "geometry": {"type": "Point", "coordinates": [-26.732747217286267, 4.9382680216552926]}}, {"type": "Feature", "properties": {"norad_id": 36701, "name": "FENGYUN 1C DEB", "group": "fengyun-1c-debris", "lat": -63.29822035354535, "lon": -42.01221900093432, "alt_km": 824.4887653046644, "timestamp": "2025-12-05T07:38:19.134063+00:00", "meta": {"OBJECT_NAME": "FENGYUN 1C DEB", "OBJECT_ID": "1999-025DZX", "EPOCH": "2025-11-30T15:53:09.500928", "MEAN_MOTION": 13.71224206, "ECCENTRICITY": 0.02612081, "INCLINATION": 102.7441, "RA_OF_ASC_NODE": 285.087, "ARG_OF_PERICENTER": 280.9421, "MEAN_ANOMALY": 76.243, "EPHEMERIS_TYPE": 0, "CLASSIFICATION_TYPE": "U", "NORAD_CAT_ID": 36701, "ELEMENT_SET_NO": 999, "REV_AT_EPOCH": 60973, "BSTAR": 0.0027853288, "MEAN_MOTION_DOT": 3.111e-05, "MEAN_MOTION_DDOT": 0}, "tle": {"line1": "1 36701U 99025DZX 25334.66191552  .00003111  00000+0  27853-2 0  9996", "line2": "2 36701 102.7441 285.0870 0261208 280.9421  76.2430 13.71224206609738"}}, "geometry": {"type": "Point", "coordinates": [-42.01221900093432, -63.29822035354535]}}, {"type": "Feature", "properties": {"norad_id": 36707, "name": "FENGYUN 1C DEB", "group": "fengyun-1c-debris", "lat": 75.70500335193232, "lon": -11.659871587401003, "alt_km": 811.3311089193558, "timestamp": "2025-12-05T07:38:19.134073+00:00", "meta": {"OBJECT_NAME": "FENGYUN 1C DEB", "OBJECT_ID": "1999-025EAD", "EPOCH": "2025-12-03T23:04:31.373472", "MEAN_MOTION": 14.17266371, "ECCENTRICITY": 0.00499964, "INCLINATION": 98.7533, "RA_OF_ASC_NODE": 24.2092, "ARG_OF_PERICENTER": 146.3884, "MEAN_ANOMALY": 214.0479, "EPHEMERIS_TYPE": 0, "CLASSIFICATION_TYPE": "U", "NORAD_CAT_ID": 36707, "ELEMENT_SET_NO": 999, "REV_AT_EPOCH": 63955, "BSTAR": 0.0013556675, "MEAN_MOTION_DOT": 2.729e-05, "MEAN_MOTION_DDOT": 0}, "tle": {"line1": "1 36707U 99025EAD 25337.96147423  .00002729  00000+0  13557-2 0  9996", "line2": "2 36707  98.7533  24.2092 0049996 146.3884 214.0479 14.17266371639553"}}, "geometry": {"type": "Point", "coordinates": [-11.659871587401003, 75.70500335193232]}}, {"type": "Feature", "properties": {"norad_id": 36710, "name": "FENGYUN 1C DEB", "group": "fengyun-1c-debris", "lat": -20.907207092851774, "lon": -146.74522276135824, "alt_km": 683.9066709639364, "timestamp": "2025-12-05T07:38:19.134095+00:00", "meta": {"OBJECT_NAME": "FENGYUN 1C DEB", "OBJECT_ID": "1999-025EAG", "EPOCH": "2025-12-01T21:32:31.905600", "MEAN_MOTION": 14.49639055, "ECCENTRICITY": 0.0067671, "INCLINATION": 98.3816, "RA_OF_ASC_NODE": 33.083, "ARG_OF_PERICENTER": 214.3646, "MEAN_ANOMALY": 145.3162, "EPHEMERIS_TYPE": 0, "CLASSIFICATION_TYPE": "U", "NORAD_CAT_ID": 36710, "ELEMENT_SET_NO": 999, "REV_AT_EPOCH": 64796, "BSTAR": 0.0017482882, "MEAN_MOTION_DOT": 6.877e-05, "MEAN_MOTION_DDOT": 0}, "tle": {"line1": "1 36710U 99025EAG 25335.89759150  .00006877  00000+0  17483-2 0  9996", "line2": "2 36710  98.3816  33.0830 0067671 214.3646 145.3162 14.49639055647964"}}, "geometry": {"type": "Point", "coordinates": [-146.74522276135824, -20.907207092851774]}}, {"type": "Feature", "properties": {"norad_id": 36711, "name": "FENGYUN 1C DEB", "group": "fengyun-1c-debris", "lat": -78.30350919829885, "lon": 63.953595865968396, "alt_km": 708.4360065244955, "timestamp": "2025-12-05T07:38:19.134106+00:00", "meta": {"OBJECT_NAME": "FENGYUN 1C DEB", "OBJECT_ID": "1999-025EAH", "EPOCH": "2025-11-29T18:49:32.545344", "MEAN_MOTION": 14.42080972, "ECCENTRICITY": 0.01000486, "INCLINATION": 100.8061, "RA_OF_ASC_NODE": 349.6584, "ARG_OF_PERICENTER": 244.1532, "MEAN_ANOMALY": 114.9305, "EPHEMERIS_TYPE": 0, "CLASSIFICATION_TYPE": "U", "NORAD_CAT_ID": 36711, "ELEMENT_SET_NO": 999, "REV_AT_EPOCH": 64124, "BSTAR": 0.0024295961, "MEAN_MOTION_DOT": 8.419e-05, "MEAN_MOTION_DDOT": 0}, "tle": {"line1": "1 36711U 99025EAH 25333.78440446  .00008419  00000+0  24296-2 0  9992", "line2": "2 36711 100.8061 349.6584 0100048 244.1532 114.9305 14.42080972641246"}}, "geometry": {"type": "Point", "coordinates": [63.953595865968396, -78.30350919829885]}}, {"type": "Feature", "properties": {"norad_id": 36716, "name": "FENGYUN 1C DEB", "group": "fengyun-1c-debris", "lat": -42.639291442923565, "lon": -92.94761617799185, "alt_km": 898.470970589774, "timestamp": "2025-12-05T07:38:19.134117+00:00", "meta": {"OBJECT_NAME": "FENGYUN 1C DEB", "OBJECT_ID": "1999-025EAN", "EPOCH": "2025-12-04T12:49:18.837984", "MEAN_MOTION": 13.88406151, "ECCENTRICITY": 0.0148016, "INCLINATION": 99.2275, "RA_OF_ASC_NODE": 257.6681, "ARG_OF_PERICENTER": 251.0772, "MEAN_ANOMALY": 107.4291, "EPHEMERIS_TYPE": 0, "CLASSIFICATION_TYPE": "U", "NORAD_CAT_ID": 36716, "ELEMENT_SET_NO": 999, "REV_AT_EPOCH": 62817, "BSTAR": 0.00042624, "MEAN_MOTION_DOT": 5.12e-06, "MEAN_MOTION_DDOT": 0}, "tle": {"line1": "1 36716U 99025EAN 25338.53424581  .00000512  00000+0  42624-3 0  9999", "line2": "2 36716  99.2275 257.6681 0148016 251.0772 107.4291 13.88406151628173"}}, "geometry": {"type": "Point", "coordinates": [-92.94761617799185, -42.639291442923565]}}, {"type": "Feature", "properties": {"norad_id": 36724, "name": "FENGYUN 1C DEB", "group": "fengyun-1c-debris", "lat": -75.51308024564888, "lon": 50.71427441635656, "alt_km": 780.313226554932, "timestamp": "2025-12-05T07:38:19.134127+00:00", "meta": {"OBJECT_NAME": "FENGYUN 1C DEB", "OBJECT_ID": "1999-025EAW", "EPOCH": "2025-12-02T00:57:35.994816", "MEAN_MOTION": 14.25124364, "ECCENTRICITY": 0.01035854, "INCLINATION": 99.4708, "RA_OF_ASC_NODE": 6.9331, "ARG_OF_PERICENTER": 227.7842, "MEAN_ANOMALY": 162.27, "EPHEMERIS_TYPE": 0, "CLASSIFICATION_TYPE": "U", "NORAD_CAT_ID": 36724, "ELEMENT_SET_NO": 999, "REV_AT_EPOCH": 57320, "BSTAR": 0.0021080641, "MEAN_MOTION_DOT": 5.184e-05, "MEAN_MOTION_DDOT": 0}, "tle": {"line1": "1 36724U 99025EAW 25336.03999994  .00005184  00000+0  21081-2 0  9999", "line2": "2 36724  99.4708   6.9331 0103585 227.7842 162.2700 14.25124364573204"}}, "geometry": {"type": "Point", "coordinates": [50.71427441635656, -75.51308024564888]}}, {"type": "Feature", "properties": {"norad_id": 36729, "name": "FENGYUN 1C DEB", "group": "fengyun-1c-debris", "lat": 13.299011573911283, "lon": -40.71881268468826, "alt_km": 862.5406230621084, "timestamp": "2025-12-05T07:38:19.134137+00:00", "meta": {"OBJECT_NAME": "FENGYUN 1C DEB", "OBJECT_ID": "1999-025EBB", "EPOCH": "2025-12-03T04:29:37.222368", "MEAN_MOTION": 14.10300692, "ECCENTRICITY": 0.00454632, "INCLINATION": 98.7067, "RA_OF_ASC_NODE": 319.2938, "ARG_OF_PERICENTER": 283.7878, "MEAN_ANOMALY": 75.8236, "EPHEMERIS_TYPE": 0, "CLASSIFICATION_TYPE": "U", "NORAD_CAT_ID": 36729, "ELEMENT_SET_NO": 999, "REV_AT_EPOCH": 87117, "BSTAR": 0.00037904944, "MEAN_MOTION_DOT": 6.36e-06, "MEAN_MOTION_DDOT": 0}, "tle": {"line1": "1 36729U 99025EBB 25337.18723637  .00000636  00000+0  37905-3 0  9990", "line2": "2 36729  98.7067 319.2938 0045463 283.7878  75.8236 14.10300692871177"}}, "geometry": {"type": "Point", "coordinates": [-40.71881268468826, 13.299011573911283]}}]}